{"type": "FeatureCollection", "features": [ {"type": "Feature", "properties": {"norad_id": 30481, "name": "FENGYUN 1C DEB", "group": "fengyun-1c-debris", "lat": -75.04105648449753, "lon": 153.87735172844717, "alt_km": 610.8842712945789, "timestamp": "2025-12-15T22:44:29.204589+00:00", "meta": {"OBJECT_NAME": "FENGYUN 1C DEB", "OBJECT_ID": "1999-025AGT", "EPOCH": "2025-12-14T23:59:07.587168", "MEAN_MOTION": 14.39048219, "ECCENTRICITY": 0.02230284, "INCLINATION": 98.3372, "RA_OF_ASC_NODE": 6.243, "ARG_OF_PERICENTER": 253.1553, "MEAN_ANOMALY": 134.8361, "EPHEMERIS_TYPE": 0, "CLASSIFICATION_TYPE": "U", "NORAD_CAT_ID": 30481, "ELEMENT_SET_NO": 999, "REV_AT_EPOCH": 98516, "BSTAR": 0.00045361146, "MEAN_MOTION_DOT": 1.821e-05, "MEAN_MOTION_DDOT": 0}, "tle": {"line1": "1 30481U 99025AGT 25348.99939337  .00001821  00000+0  45361-3 0  9998", "line2": "2 30481  98.3372   6.2430 0223028 253.1553 134.8361 14.39048219985162"}}, "geometry": {"type": "Point", "coordinates": [153.87735172844717, -75.04105648449753]}}, {"type": "Feature", "properties": {"norad_id": 30489, "name": "FENGYUN 1C DEB", "group": "fengyun-1c-debris", "lat": -21.83729642254151, "lon": -178.7393705380125, "alt_km": 784.5737979316227, "timestamp": "2025-12-15T22:44:29.204599+00:00", "meta": {"OBJECT_NAME": "FENGYUN 1C DEB", "OBJECT_ID": "1999-025AHB", "EPOCH": "2025-12-15T08:16:20.199936", "MEAN_MOTION": 14.15823859, "ECCENTRICITY": 0.01389671, "INCLINATION": 98.4685, "RA_OF_ASC_NODE": 4.1101, "ARG_OF_PERICENTER": 257.4681, "MEAN_ANOMALY": 114.6533, "EPHEMERIS_TYPE": 0, "CLASSIFICATION_TYPE": "U", "NORAD_CAT_ID": 30489, "ELEMENT_SET_NO": 999, "REV_AT_EPOCH": 97424, "BSTAR": 0.00028533143, "MEAN_MOTION_DOT": 5.74e-06, "MEAN_MOTION_DDOT": 0}, "tle": {"line1": "1 30489U 99025AHB 25349.34467824  .00000574  00000+0  28533-3 0  9999", "line2": "2 30489  98.4685   4.1101 0138967 257.4681 114.6533 14.15823859974245"}}, "geometry": {"type": "Point", "coordinates": [-178.7393705380125, -21.83729642254151]}}, {"type": "Feature", "properties": {"norad_id": 30490, "name": "FENGYUN 1C DEB", "group": "fengyun-1c-debris", "lat": -45.422457736297886, "lon": -66.56740016192809, "alt_km": 500.65817780871475, "timestamp": "2025-12-15T22:44:29.204610+00:00", "meta": {"OBJECT_NAME": "FENGYUN 1C DEB", "OBJECT_ID": "1999-025AHC", "EPOCH": "2025-12-15T07:37:32.582208", "MEAN_MOTION": 15.29067323, "ECCENTRICITY": 0.00462053, "INCLINATION": 98.3291, "RA_OF_ASC_NODE": 121.2786, "ARG_OF_PERICENTER": 108.4707, "MEAN_ANOMALY": 252.156, "EPHEMERIS_TYPE": 0, "CLASSIFICATION_TYPE": "U", "NORAD_CAT_ID": 30490, "ELEMENT_SET_NO": 999, "REV_AT_EPOCH": 99535, "BSTAR": 0.0024512656, "MEAN_MOTION_DOT": 0.00071933, "MEAN_MOTION_DDOT": 0}, "tle": {"line1": "1 30490U 99025AHC 25349.31773822  .00071933  00000+0  24513-2 0  9996", "line2": "2 30490  98.3291 121.2786 0046205 108.4707 252.1560 15.29067323995351"}}, "geometry": {"type": "Point", "coordinates": [-66.56740016192809, -45.422457736297886]}}, {"type": "Feature", "properties": {"norad_id": 30492, "name": "FENGYUN 1C DEB", "group": "fengyun-1c-debris", "lat": 12.404715276439074, "lon": 5.917846558173203, "alt_km": 670.0210357463193, "timestamp": "2025-12-15T22:44:29.204620+00:00", "meta": {"OBJECT_NAME": "FENGYUN 1C DEB", "OBJECT_ID": "1999-025AHE", "EPOCH": "2025-12-15T07:47:58.749792", "MEAN_MOTION": 14.51925297, "ECCENTRICITY": 0.00945485, "INCLINATION": 102.3262, "RA_OF_ASC_NODE": 7.7646, "ARG_OF_PERICENTER": 56.174, "MEAN_ANOMALY": 304.8397, "EPHEMERIS_TYPE": 0, "CLASSIFICATION_TYPE": "U", "NORAD_CAT_ID": 30492, "ELEMENT_SET_NO": 999, "REV_AT_EPOCH": 96932, "BSTAR": 0.0020407957, "MEAN_MOTION_DOT": 8.65e-05, "MEAN_MOTION_DDOT": 0}, "tle": {"line1": "1 30492U 99025AHE 25349.32498553  .00008650  00000+0  20408-2 0  9999", "line2": "2 30492 102.3262   7.7646 0094548  56.1740 304.8397 14.51925297969327"}}, "geometry": {"type": "Point", "coordinates": [5.917846558173203, 12.404715276439074]}}, {"type": "Feature", "properties": {"norad_id": 30493, "name": "FENGYUN 1C DEB", "group": "fengyun-1c-debris", "lat": 14.833856840978287, "lon": 177.75290059398688, "alt_km": 1047.6606519016523, "timestamp": "2025-12-15T22:44:29.204630+00:00", "meta": {"OBJECT_NAME": "FENGYUN 1C DEB", "OBJECT_ID": "1999-025AHF", "EPOCH": "2025-12-13T12:20:05.297280", "MEAN_MOTION": 13.92976286, "ECCENTRICITY": 0.01812019, "INCLINATION": 98.5708, "RA_OF_ASC_NODE": 177.7868, "ARG_OF_PERICENTER": 214.6596, "MEAN_ANOMALY": 202.7185, "EPHEMERIS_TYPE": 0, "CLASSIFICATION_TYPE": "U", "NORAD_CAT_ID": 30493, "ELEMENT_SET_NO": 999, "REV_AT_EPOCH": 95106, "BSTAR": 0.0045223768, "MEAN_MOTION_DOT": 6.687e-05, "MEAN_MOTION_DDOT": 0}, "tle": {"line1": "1 30493U 99025AHF 25347.51395020  .00006687  00000+0  45224-2 0  9995", "line2": "2 30493  98.5708 177.7868 0181201 214.6596 202.7185 13.92976286951067"}}, "geometry": {"type": "Point", "coordinates": [177.75290059398688, 14.833856840978287]}}, {"type": "Feature", "properties": {"norad_id": 30494, "name": "FENGYUN 1C DEB", "group": "fengyun-1c-debris", "lat": 45.29271283151374, "lon": -145.22402895431642, "alt_km": 935.5959424860648, "timestamp": "2025-12-15T22:44:29.204640+00:00", "meta": {"OBJECT_NAME": "FENGYUN 1C DEB", "OBJECT_ID": "1999-025AHG", "EPOCH": "2025-12-13T09:08:54.511872", "MEAN_MOTION": 13.79374392, "ECCENTRICITY": 0.01858881, "INCLINATION": 99.283, "RA_OF_ASC_NODE": 22.7493, "ARG_OF_PERICENTER": 220.5118, "MEAN_ANOMALY": 138.2072, "EPHEMERIS_TYPE": 0, "CLASSIFICATION_TYPE": "U", "NORAD_CAT_ID": 30494, "ELEMENT_SET_NO": 999, "REV_AT_EPOCH": 94495, "BSTAR": 0.0021155568, "MEAN_MOTION_DOT": 2.43e-05, "MEAN_MOTION_DDOT": 0}, "tle": {"line1": "1 30494U 99025AHG 25347.38118648  .00002430  00000+0  21156-2 0  9990", "line2": "2 30494  99.2830  22.7493 0185888 220.5118 138.2072 13.79374392944959"}}, "geometry": {"type": "Point", "coordinates": [-145.22402895431642, 45.29271283151374]}}, {"type": "Feature", "properties": {"norad_id": 30495, "name": "FENGYUN 1C DEB", "group": "fengyun-1c-debris", "lat": -47.310151732681284, "lon": -114.52526470834468, "alt_km": 893.0369206796004, "timestamp": "2025-12-15T22:44:29.204651+00:00", "meta": {"OBJECT_NAME": "FENGYUN 1C DEB", "OBJECT_ID": "1999-025AHH", "EPOCH": "2025-12-14T04:42:05.842080", "MEAN_MOTION": 12.94393656, "ECCENTRICITY": 0.05971501, "INCLINATION": 102.2603, "RA_OF_ASC_NODE": 77.1465, "ARG_OF_PERICENTER": 263.6815, "MEAN_ANOMALY": 89.5981, "EPHEMERIS_TYPE": 0, "CLASSIFICATION_TYPE": "U", "NORAD_CAT_ID": 30495, "ELEMENT_SET_NO": 999, "REV_AT_EPOCH": 88692, "BSTAR": 0.0037984689, "MEAN_MOTION_DOT": 2.324e-05, "MEAN_MOTION_DDOT": 0}, "tle": {"line1": "1 30495U 99025AHH 25348.19590095  .00002324  00000+0  37985-2 0  9990", "line2": "2 30495 102.2603  77.1465 0597150 263.6815  89.5981 12.94393656886926"}}, "geometry": {"type": "Point", "coordinates": [-114.52526470834468, -47.310151732681284]}}, {"type": "Feature", "properties": {"norad_id": 30496, "name": "FENGYUN 1C DEB", "group": "fengyun-1c-debris", "lat": -69.03358757909879, "lon": 52.36997826822162, "alt_km": 678.9409993386935, "timestamp": "2025-12-15T22:44:29.204661+00:00", "meta": {"OBJECT_NAME": "FENGYUN 1C DEB", "OBJECT_ID": "1999-025AHJ", "EPOCH": "2025-12-15T00:44:19.951872", "MEAN_MOTION": 14.94297634, "ECCENTRICITY": 0.01305212, "INCLINATION": 98.7833, "RA_OF_ASC_NODE": 255.1418, "ARG_OF_PERICENTER": 90.0461, "MEAN_ANOMALY": 271.5712, "EPHEMERIS_TYPE": 0, "CLASSIFICATION_TYPE": "U", "NORAD_CAT_ID": 30496, "ELEMENT_SET_NO": 999, "REV_AT_EPOCH": 1178, "BSTAR": 0.00043421353, "MEAN_MOTION_DOT": 5.445e-05, "MEAN_MOTION_DDOT": 0}, "tle": {"line1": "1 30496U 99025AHJ 25349.03078648  .00005445  00000+0  43421-3 0  9990", "line2": "2 30496  98.7833 255.1418 0130521  90.0461 271.5712 14.94297634 11781"}}, "geometry": {"type": "Point", "coordinates": [52.36997826822162, -69.03358757909879]}}, {"type": "Feature", "properties": {"norad_id": 30498, "name": "FENGYUN 1C DEB", "group": "fengyun-1c-debris", "lat": 70.2082160789606, "lon": 14.248855836051701, "alt_km": 845.2693076052519, "timestamp": "2025-12-15T22:44:29.204671+00:00", "meta": {"OBJECT_NAME": "FENGYUN 1C DEB", "OBJECT_ID": "1999-025AHL", "EPOCH": "2025-12-15T02:02:45.922272", "MEAN_MOTION": 14.06079958, "ECCENTRICITY": 0.01044044, "INCLINATION": 99.2381, "RA_OF_ASC_NODE": 40.2581, "ARG_OF_PERICENTER": 149.5633, "MEAN_ANOMALY": 241.5252, "EPHEMERIS_TYPE": 0, "CLASSIFICATION_TYPE": "U", "NORAD_CAT_ID": 30498, "ELEMENT_SET_NO": 999, "REV_AT_EPOCH": 95802, "BSTAR": 0.0016661388, "MEAN_MOTION_DOT": 2.828e-05, "MEAN_MOTION_DDOT": 0}, "tle": {"line1": "1 30498U 99025AHL 25349.08525373  .00002828  00000+0  16661-2 0  9996", "line2": "2 30498  99.2381  40.2581 0104404 149.5633 241.5252 14.06079958958026"}}, "geometry": {"type": "Point", "coordinates": [14.248855836051701, 70.2082160789606]}}, {"type": "Feature", "properties": {"norad_id": 30500, "name": "FENGYUN 1C DEB", "group": "fengyun-1c-debris", "lat": 25.41258078162968, "lon": -94.09857395338358, "alt_km": 775.0490592054584, "timestamp": "2025-12-15T22:44:29.204682+00:00", "meta": {"OBJECT_NAME": "FENGYUN 1C DEB", "OBJECT_ID": "1999-025AHN", "EPOCH": "2025-12-15T05:25:31.932192", "MEAN_MOTION": 14.25228099, "ECCENTRICITY": 0.00644849, "INCLINATION": 99.0724, "RA_OF_ASC_NODE": 80.802, "ARG_OF_PERICENTER": 109.2589, "MEAN_ANOMALY": 304.5406, "EPHEMERIS_TYPE": 0, "CLASSIFICATION_TYPE": "U", "NORAD_CAT_ID": 30500, "ELEMENT_SET_NO": 999, "REV_AT_EPOCH": 96717, "BSTAR": 0.0017157473, "MEAN_MOTION_DOT": 4.077e-05, "MEAN_MOTION_DDOT": 0}, "tle": {"line1": "1 30500U 99025AHN 25349.22606403  .00004077  00000+0  17157-2 0  9999", "line2": "2 30500  99.0724  80.8020 0064484 109.2589 304.5406 14.25228099967173"}}, "geometry": {"type": "Point", "coordinates": [-94.09857395338358, 25.41258078162968]}}]}